STARLINK-37502          
1 69263U 26117AB  26156.08337963 -.01939266  12206-2 -24257-2 0  9995
2 69263  53.1568 304.2745 0000512  51.2654 173.7535 16.07121584  2224
STARLINK-37486          
1 69264U 26117AC  26156.08337963 -.01911913  11878-2 -23929-2 0  9994
2 69264  53.1567 304.2631 0000636  58.3287 172.3245 16.07109215  2225
STARLINK-37435          
1 69265U 26117AD  26156.08337963 -.01833655  11031-2 -22336-2 0  9993
2 69265  53.1568 304.2510 0000378  43.3252 192.6856 16.07530728  2222
STARLINK-37464          
1 69266U 26117AE  26156.08337963 -.01860198  11405-2 -22006-2 0  9995
2 69266  53.1568 304.2390 0000659  63.2769 178.5005 16.07993469  2229
KUIPER-00282            
1 69267U 26118A   26156.08337963 -.00063937  00000+0 -18361-2 0  9997
2 69267  51.8577 111.8861 0011954 141.0818  66.6292 15.35309415  1495
KUIPER-00383            
1 69268U 26118B   26156.08337963  .00000746  00000+0  32104-4 0  9998
2 69268  51.8580 111.8685 0011131 138.1432  78.1377 15.35789115  1558
KUIPER-00527            
1 69269U 26118C   26156.08337963  .00001848  00000+0  62775-4 0  9990
2 69269  51.8605 111.8518 0009921 133.1558  91.3116 15.36004112  1309
KUIPER-00562            
1 69270U 26118D   26156.08337963  .00003781  00000+0  10871-3 0  9999
2 69270  51.8710 111.7399 0001990  81.3596 190.7996 15.38345147  2082
KUIPER-00570            
1 69271U 26118E   26156.08337963  .00001369  00000+0  49844-4 0  9993
2 69271  51.8566 111.8664 0011167 142.3744  75.0776 15.35667123  1671
KUIPER-00572            
1 69272U 26118F   26156.08337963  .00001727  00000+0  58127-4 0  9996
2 69272  51.8661 111.8248 0007466 127.4835 109.0804 15.36708702  1421
KUIPER-00581            
1 69273U 26118G   26156.08337963  .00001920  00000+0  64051-4 0  9995
2 69273  51.8642 111.8402 0008978 132.1332  97.4529 15.36390908  2214
KUIPER-00584            
1 69274U 26118H   26156.08337963  .00002667  00000+0  87678-4 0  9995
2 69274  51.8594 111.8785 0011537 144.2023  67.1951 15.35273291  1307
KUIPER-00587            
1 69275U 26118J   26156.08337963  .00003392  00000+0  10489-3 0  9997
2 69275  51.8616 111.8347 0008561 134.1119  98.7731 15.36360146  1307
KUIPER-00590            
1 69276U 26118K   26156.08337963  .00002655  00000+0  81310-4 0  9991
2 69276  51.8676 111.7842 0004452 115.1923 140.6752 15.37594237  1974
KUIPER-00592            
1 69277U 26118L   26156.08337963  .00004452  00000+0  12836-3 0  9995
2 69277  51.8696 111.7715 0003934  93.9735 166.3929 15.37803076  1306
KUIPER-00593            
1 69278U 26118M   26156.08337963  .00002850  00000+0  86169-4 0  9997
2 69278  51.8702 111.7702 0004154 111.3462 148.9052 15.37719390  2183
KUIPER-00594            
1 69279U 26118N   26156.08337963  .00003400  00000+0  98227-4 0  9998
2 69279  51.8708 111.7347 0001462  52.9362 223.6394 15.38525246  1302
KUIPER-00595            
1 69280U 26118P   26156.08337963  .00003967  00000+0  11408-3 0  9993
2 69280  51.8701 111.7486 0002082  93.9721 177.1640 15.38195925  2152
KUIPER-00596            
1 69281U 26118Q   26156.08337963  .00000268  00000+0  18728-4 0  9998
2 69281  51.8542 111.8763 0012020 140.3015  71.9920 15.35543234  1429
KUIPER-00597            
1 69282U 26118R   26156.08337963  .00003154  00000+0  96683-4 0  9992
2 69282  51.8637 111.8139 0007151 127.4198 115.2925 15.36903042  1301
KUIPER-00599            
1 69283U 26118S   26156.08337963  .00002542  00000+0  79571-4 0  9990
2 69283  51.8679 111.8047 0006447 120.4743 125.1326 15.37080495  1306
KUIPER-00600            
1 69284U 26118T   26156.08337963  .00002015  00000+0  66509-4 0  9993
2 69284  51.8629 111.8327 0009078 128.1655 105.4241 15.36478581  2004
KUIPER-00601            
1 69285U 26118U   26156.08337963  .00003888  00000+0  11487-3 0  9997
2 69285  51.8693 111.7903 0005050 113.0081 138.6212 15.37401089  2036
KUIPER-00602            
1 69286U 26118V   26156.08337963  .00003817  00000+0  11140-3 0  9996
2 69286  51.8690 111.7671 0003322 102.5271 160.6989 15.37839665  1300
KUIPER-00603            
1 69287U 26118W   26156.08337963  .00004644  00000+0  13573-3 0  9998
2 69287  51.8660 111.7985 0005780 116.4034 133.1903 15.37264461  1988
KUIPER-00605            
1 69288U 26118X   26156.08337963  .00001849  00000+0  61304-4 0  9999
2 69288  51.8650 111.8214 0007829 121.9956 116.6794 15.36806202  1825
KUIPER-00606            
1 69289U 26118Y   26156.08337963  .00004626  00000+0  13427-3 0  9998
2 69289  51.8684 111.7850 0004930 108.7275 146.1085 15.37493732  1670
KUIPER-00607            
1 69290U 26118Z   26156.08337963  .00003825  00000+0  11402-3 0  9991
2 69290  51.8670 111.8011 0006539 115.1076 132.7017 15.37163476  1636
KUIPER-00608            
1 69291U 26118AA  26156.08337963  .00000676  00000+0  29779-4 0  9990
2 69291  51.8591 111.8464 0010130 136.4005  90.9151 15.36169382  1603
KUIPER-00610            
1 69292U 26118AB  26156.08337963  .00006374  00000+0  17792-3 0  9993
2 69292  51.8708 111.7548 0003093  94.3734 171.9603 15.38029826  1520
