OBJECT_NAME,OBJECT_ID,EPOCH,MEAN_MOTION,ECCENTRICITY,INCLINATION,RA_OF_ASC_NODE,ARG_OF_PERICENTER,MEAN_ANOMALY,EPHEMERIS_TYPE,CLASSIFICATION_TYPE,NORAD_CAT_ID,ELEMENT_SET_NO,REV_AT_EPOCH,BSTAR,MEAN_MOTION_DOT,MEAN_MOTION_DDOT
STARLINK-37502,2026-117AB,2026-06-05T02:00:04.000032,16.07121584,.0000512,53.1568,304.2745,51.2654,173.7535,0,U,69263,999,222,-.24257E-2,-.1939266E-1,.12206E-2
STARLINK-37486,2026-117AC,2026-06-05T02:00:04.000032,16.07109215,.0000636,53.1567,304.2631,58.3287,172.3245,0,U,69264,999,222,-.23929E-2,-.1911913E-1,.11878E-2
STARLINK-37435,2026-117AD,2026-06-05T02:00:04.000032,16.07530728,.0000378,53.1568,304.2510,43.3252,192.6856,0,U,69265,999,222,-.22336E-2,-.1833655E-1,.11031E-2
STARLINK-37464,2026-117AE,2026-06-05T02:00:04.000032,16.07993469,.0000659,53.1568,304.2390,63.2769,178.5005,0,U,69266,999,222,-.22006E-2,-.1860198E-1,.11405E-2
KUIPER-00282,2026-118A,2026-06-05T02:00:04.000032,15.35309415,.0011954,51.8577,111.8861,141.0818,66.6292,0,U,69267,999,149,-.18361E-2,-.63937E-3,0
KUIPER-00383,2026-118B,2026-06-05T02:00:04.000032,15.35789115,.0011131,51.8580,111.8685,138.1432,78.1377,0,U,69268,999,155,.32104E-4,.746E-5,0
KUIPER-00527,2026-118C,2026-06-05T02:00:04.000032,15.36004112,.0009921,51.8605,111.8518,133.1558,91.3116,0,U,69269,999,130,.62775E-4,.1848E-4,0
KUIPER-00562,2026-118D,2026-06-05T02:00:04.000032,15.38345147,.000199,51.8710,111.7399,81.3596,190.7996,0,U,69270,999,208,.10871E-3,.3781E-4,0
KUIPER-00570,2026-118E,2026-06-05T02:00:04.000032,15.35667123,.0011167,51.8566,111.8664,142.3744,75.0776,0,U,69271,999,167,.49844E-4,.1369E-4,0
KUIPER-00572,2026-118F,2026-06-05T02:00:04.000032,15.36708702,.0007466,51.8661,111.8248,127.4835,109.0804,0,U,69272,999,142,.58127E-4,.1727E-4,0
KUIPER-00581,2026-118G,2026-06-05T02:00:04.000032,15.36390908,.0008978,51.8642,111.8402,132.1332,97.4529,0,U,69273,999,221,.64051E-4,.192E-4,0
KUIPER-00584,2026-118H,2026-06-05T02:00:04.000032,15.35273291,.0011537,51.8594,111.8785,144.2023,67.1951,0,U,69274,999,130,.87678E-4,.2667E-4,0
KUIPER-00587,2026-118J,2026-06-05T02:00:04.000032,15.36360146,.0008561,51.8616,111.8347,134.1119,98.7731,0,U,69275,999,130,.10489E-3,.3392E-4,0
KUIPER-00590,2026-118K,2026-06-05T02:00:04.000032,15.37594237,.0004452,51.8676,111.7842,115.1923,140.6752,0,U,69276,999,197,.8131E-4,.2655E-4,0
KUIPER-00592,2026-118L,2026-06-05T02:00:04.000032,15.37803076,.0003934,51.8696,111.7715,93.9735,166.3929,0,U,69277,999,130,.12836E-3,.4452E-4,0
KUIPER-00593,2026-118M,2026-06-05T02:00:04.000032,15.37719390,.0004154,51.8702,111.7702,111.3462,148.9052,0,U,69278,999,218,.86169E-4,.285E-4,0
KUIPER-00594,2026-118N,2026-06-05T02:00:04.000032,15.38525246,.0001462,51.8708,111.7347,52.9362,223.6394,0,U,69279,999,130,.98227E-4,.34E-4,0
KUIPER-00595,2026-118P,2026-06-05T02:00:04.000032,15.38195925,.0002082,51.8701,111.7486,93.9721,177.1640,0,U,69280,999,215,.11408E-3,.3967E-4,0
KUIPER-00596,2026-118Q,2026-06-05T02:00:04.000032,15.35543234,.001202,51.8542,111.8763,140.3015,71.9920,0,U,69281,999,142,.18728E-4,.268E-5,0
KUIPER-00597,2026-118R,2026-06-05T02:00:04.000032,15.36903042,.0007151,51.8637,111.8139,127.4198,115.2925,0,U,69282,999,130,.96683E-4,.3154E-4,0
KUIPER-00599,2026-118S,2026-06-05T02:00:04.000032,15.37080495,.0006447,51.8679,111.8047,120.4743,125.1326,0,U,69283,999,130,.79571E-4,.2542E-4,0
KUIPER-00600,2026-118T,2026-06-05T02:00:04.000032,15.36478581,.0009078,51.8629,111.8327,128.1655,105.4241,0,U,69284,999,200,.66509E-4,.2015E-4,0
KUIPER-00601,2026-118U,2026-06-05T02:00:04.000032,15.37401089,.000505,51.8693,111.7903,113.0081,138.6212,0,U,69285,999,203,.11487E-3,.3888E-4,0
KUIPER-00602,2026-118V,2026-06-05T02:00:04.000032,15.37839665,.0003322,51.8690,111.7671,102.5271,160.6989,0,U,69286,999,130,.1114E-3,.3817E-4,0
KUIPER-00603,2026-118W,2026-06-05T02:00:04.000032,15.37264461,.000578,51.8660,111.7985,116.4034,133.1903,0,U,69287,999,198,.13573E-3,.4644E-4,0
KUIPER-00605,2026-118X,2026-06-05T02:00:04.000032,15.36806202,.0007829,51.8650,111.8214,121.9956,116.6794,0,U,69288,999,182,.61304E-4,.1849E-4,0
KUIPER-00606,2026-118Y,2026-06-05T02:00:04.000032,15.37493732,.000493,51.8684,111.7850,108.7275,146.1085,0,U,69289,999,167,.13427E-3,.4626E-4,0
KUIPER-00607,2026-118Z,2026-06-05T02:00:04.000032,15.37163476,.0006539,51.8670,111.8011,115.1076,132.7017,0,U,69290,999,163,.11402E-3,.3825E-4,0
KUIPER-00608,2026-118AA,2026-06-05T02:00:04.000032,15.36169382,.001013,51.8591,111.8464,136.4005,90.9151,0,U,69291,999,160,.29779E-4,.676E-5,0
KUIPER-00610,2026-118AB,2026-06-05T02:00:04.000032,15.38029826,.0003093,51.8708,111.7548,94.3734,171.9603,0,U,69292,999,152,.17792E-3,.6374E-4,0
